NORAD_CAT_ID,OBJECT_NAME,OBJECT_TYPE,EPOCH,MEAN_MOTION,ECCENTRICITY,INCLINATION,RA_OF_ASC_NODE,ARG_OF_PERICENTER,MEAN_ANOMALY,BSTAR,MEAN_MOTION_DOT,MEAN_MOTION_DDOT,TLE_LINE0,TLE_LINE1,TLE_LINE2,SEMIMAJOR_AXIS,PERIOD,APOGEE,PERIGEE,DECAYED
54157.0,STARLINK-5290,PAYLOAD,2022-12-28 23:37:49,15.0883788,0.0001764999999999,53.2163,211.7204,54.3377,305.778,-6.7276e-05,-1.359e-05,0.0,0 STARLINK-5290,1 54157U 22141A   22362.98460249 -.00001359  00000-0 -67276-4 0  9991,2 54157  53.2163 211.7204 0001765  54.3377 305.7780 15.08837880  9589,6917.887,95.438,540.9730000000002,538.531,0.0
54157.0,STARLINK-5290,PAYLOAD,2022-12-29 09:10:08,15.08843347,0.0001661,53.2172,209.9361,56.0011,304.1138,-2.7434e-06,-3.32e-06,0.0,0 STARLINK-5290,1 54157U 22141A   22363.38204322 -.00000332  00000-0 -27434-5 0  9997,2 54157  53.2172 209.9361 0001661  56.0011 304.1138 15.08843347  9643,6917.87,95.437,540.884,538.586,0.0
54157.0,STARLINK-5290,PAYLOAD,2022-12-29 21:53:14,15.08831917,0.0001786999999999,53.2168,207.5581,55.5238,304.5923,-0.00012011,-2.199e-05,0.0,0 STARLINK-5290,1 54157U 22141A   22363.91197410 -.00002199  00000-0 -12011-3 0  9991,2 54157  53.2168 207.5581 0001787  55.5238 304.5923 15.08831917  9725,6917.905,95.438,541.006,538.534,0.0
54157.0,STARLINK-5290,PAYLOAD,2022-12-30 09:00:56,15.08827237,0.0001861,53.217,205.4769,52.0875,308.0285,-1.936e-05,-5.96e-06,0.0,0 STARLINK-5290,1 54157U 22141A   22364.37565751 -.00000596  00000-0 -19360-4 0  9993,2 54157  53.2170 205.4769 0001861  52.0875 308.0285 15.08827237  9792,6917.919,95.438,541.072,538.497,0.0
54157.0,STARLINK-5290,PAYLOAD,2022-12-30 23:19:24,15.08832366,0.0001891,53.2169,202.8007,52.7469,307.3696,7.4115e-05,8.91e-06,0.0,0 STARLINK-5290,1 54157U 22141A   22364.97181691  .00000891  00000-0  74115-4 0  9991,2 54157  53.2169 202.8007 0001891  52.7469 307.3696 15.08832366  9882,6917.904,95.438,541.077,538.461,0.0
54157.0,STARLINK-5290,PAYLOAD,2022-12-31 19:59:25,15.08833309,0.0001895,53.2168,198.9341,54.8138,305.3031,0.00014168,1.967e-05,0.0,0 STARLINK-5290,1 54157U 22141A   22365.83293935  .00001967  00000-0  14168-3 0  9998,2 54157  53.2168 198.9341 0001895  54.8138 305.3031 15.08833309 10013,6917.901,95.438,541.077,538.455,0.0
54157.0,STARLINK-5290,PAYLOAD,2023-01-01 11:53:17,15.08842201,0.0001882,53.2168,195.9605,58.0118,302.1057,0.00017915,2.564e-05,0.0,0 STARLINK-5290,1 54157U 22141A   23001.49533577  .00002564  00000-0  17915-3 0  9994,2 54157  53.2168 195.9605 0001882  58.0118 302.1057 15.08842201 10118,6917.874,95.437,541.0409999999998,538.437,0.0
54157.0,STARLINK-5290,PAYLOAD,2023-01-01 13:28:40,15.08842331,0.0001885999999999,53.2168,195.6631,58.1731,301.9445,0.00018284,2.623e-05,0.0,0 STARLINK-5290,1 54157U 22141A   23001.56157627  .00002623  00000-0  18284-3 0  9996,2 54157  53.2168 195.6631 0001886  58.1731 301.9445 15.08842331 10123,6917.873000000001,95.437,541.043,538.434,0.0
54157.0,STARLINK-5290,PAYLOAD,2023-01-01 19:50:12,15.08848237,0.0001935,53.216,194.4736,58.5189,301.5992,0.0002254,3.302e-05,0.0,0 STARLINK-5290,1 54157U 22141A   23001.82653482  .00003302  00000-0  22540-3 0  9990,2 54157  53.2160 194.4736 0001935  58.5189 301.5992 15.08848237 10162,6917.855,95.437,541.059,538.382,0.0
54157.0,STARLINK-5290,PAYLOAD,2023-01-02 11:44:04,15.08837725,0.0002150999999999,53.217,191.4981,55.4402,304.6793,-2.7304e-05,-7.23e-06,0.0,0 STARLINK-5290,1 54157U 22141A   23002.48893983 -.00000723  00000-0 -27304-4 0  9995,2 54157  53.2170 191.4981 0002151  55.4402 304.6793 15.08837725 10261,6917.887,95.438,541.24,538.264,0.0
54157.0,STARLINK-5290,PAYLOAD,2023-01-02 19:40:58,15.08868586,0.0001988,53.2159,190.012,54.3135,305.8042,-0.00076603,-0.00012469,0.0,0 STARLINK-5290,1 54157U 22141A   23002.82012214 -.00012469  00000-0 -76603-3 0  9998,2 54157  53.2159 190.0120 0001988  54.3135 305.8042 15.08868586 10311,6917.793000000002,95.436,541.033,538.283,0.0
54157.0,STARLINK-5290,PAYLOAD,2023-01-02 22:51:46,15.08839769,0.000197,53.217,189.4181,57.9626,302.1557,3.5998e-05,2.85e-06,0.0,0 STARLINK-5290,1 54157U 22141A   23002.95262126  .00000285  00000-0  35998-4 0  9995,2 54157  53.2170 189.4181 0001970  57.9626 302.1557 15.08839769 10332,6917.880999999999,95.438,541.109,538.383,0.0
54157.0,STARLINK-5290,PAYLOAD,2023-01-03 13:10:14,15.08844781,0.0001939,53.2168,186.7418,59.8423,300.2761,5.3909e-05,5.700000000000001e-06,0.0,0 STARLINK-5290,1 54157U 22141A   23003.54877666  .00000570  00000-0  53909-4 0  9991,2 54157  53.2168 186.7418 0001939  59.8423 300.2761 15.08844781 10429,6917.866,95.437,541.072,538.389,0.0
54157.0,STARLINK-5290,PAYLOAD,2023-01-03 21:07:09,15.08848138,0.0001949,53.2169,185.2549,59.6042,300.5142,3.3668000000000004e-05,2.48e-06,0.0,0 STARLINK-5290,1 54157U 22141A   23003.87997327  .00000248  00000-0  33668-4 0  9996,2 54157  53.2169 185.2549 0001949  59.6042 300.5142 15.08848138 10476,6917.856,95.437,541.069,538.372,0.0
54157.0,STARLINK-5290,PAYLOAD,2023-01-04 11:25:37,15.08847219,0.0001932,53.2172,182.5789,59.3042,300.814,0.0001682,2.39e-05,0.0,0 STARLINK-5290,1 54157U 22141A   23004.47612943  .00002390  00000-0  16820-3 0  9991,2 54157  53.2172 182.5789 0001932  59.3042 300.8140 15.08847219 10565,6917.858,95.437,541.06,538.387,0.0
54157.0,STARLINK-5290,PAYLOAD,2023-01-04 16:11:46,15.08850999,0.0001943999999999,53.2172,181.6869,59.8302,300.2883,0.00018102,2.595e-05,0.0,0 STARLINK-5290,1 54157U 22141A   23004.67484576  .00002595  00000-0  18102-3 0  9994,2 54157  53.2172 181.6869 0001944  59.8302 300.2883 15.08850999 10591,6917.847,95.437,541.057,538.367,0.0
54157.0,STARLINK-5290,PAYLOAD,2023-01-05 11:16:23,15.08852792,0.0002085,53.2169,178.1202,59.3817,300.738,0.00014986,2.098e-05,0.0,0 STARLINK-5290,1 54157U 22141A   23005.46972222  .00002098  00000-0  14986-3 0  9996,2 54157  53.2169 178.1202 0002085  59.3817 300.7380 15.08852792 10716,6917.840999999999,95.437,541.149,538.264,0.0
54157.0,STARLINK-5290,PAYLOAD,2023-01-05 17:37:56,15.08852106,0.000199,53.2159,176.9292,61.6896,298.4296,0.00010976,1.46e-05,0.0,0 STARLINK-5290,1 54157U 22141A   23005.73468021  .00001460  00000-0  10976-3 0  9990,2 54157  53.2159 176.9292 0001990  61.6896 298.4296 15.08852106 10759,6917.843000000003,95.437,541.085,538.332,0.0
54157.0,STARLINK-5290,PAYLOAD,2023-01-06 11:07:10,15.08851622,0.0001981,53.2153,173.658,54.8469,305.2708,-1.5275e-05,-5.31e-06,0.0,0 STARLINK-5290,1 54157U 22141A   23006.46331576 -.00000531  00000-0 -15275-4 0  9993,2 54157  53.2153 173.6580 0001981  54.8469 305.2708 15.08851622 10866,6917.845,95.437,541.08,538.339,0.0
54157.0,STARLINK-5290,PAYLOAD,2023-01-06 20:39:29,15.08851899,0.0002003,53.2153,171.87400000000005,55.7144,304.4038,1.3395e-05,-7.5e-07,0.0,0 STARLINK-5290,1 54157U 22141A   23006.86075290 -.00000075  00000-0  13395-4 0  9998,2 54157  53.2153 171.8740 0002003  55.7144 304.4038 15.08851899 10920,6917.844,95.437,541.095,538.323,0.0
54157.0,STARLINK-5290,PAYLOAD,2023-01-07 10:57:58,15.08830312,0.0001842,53.2151,169.1978,63.8607,296.2574,-0.00012884,-2.338e-05,0.0,0 STARLINK-5290,1 54157U 22141A   23007.45692444 -.00002338  00000-0 -12884-3 0  9996,2 54157  53.2151 169.1978 0001842  63.8607 296.2574 15.08830312 11016,6917.91,95.438,541.049,538.501,0.0
54157.0,STARLINK-5290,PAYLOAD,2023-01-07 20:30:17,15.08829205,0.0001811,53.2167,167.41400000000004,60.9021,299.2153,-8.657e-05,-1.665e-05,0.0,0 STARLINK-5290,1 54157U 22141A   23007.85437298 -.00001665  00000-0 -86570-4 0  9990,2 54157  53.2167 167.4140 0001811  60.9021 299.2153 15.08829205 11070,6917.913000000001,95.438,541.031,538.526,0.0
54157.0,STARLINK-5290,PAYLOAD,2023-01-08 13:59:31,15.08836535,0.0001672,53.2178,164.1424,63.7675,296.3489,3.0096e-05,1.91e-06,0.0,0 STARLINK-5290,1 54157U 22141A   23008.58300859  .00000191  00000-0  30096-4 0  9996,2 54157  53.2178 164.1424 0001672  63.7675 296.3489 15.08836535 11188,6917.891,95.438,540.913,538.599,0.0
54157.0,STARLINK-5290,PAYLOAD,2023-01-09 10:39:32,15.08832088,0.000181,53.2167,160.2774,65.6146,294.5034,0.00019917,2.882e-05,0.0,0 STARLINK-5290,1 54157U 22141A   23009.44413122  .00002882  00000-0  19917-3 0  9997,2 54157  53.2167 160.2774 0001810  65.6146 294.5034 15.08832088 11319,6917.905,95.438,541.0219999999998,538.5169999999998,0.0
54157.0,STARLINK-5290,PAYLOAD,2023-01-09 20:11:51,15.08835205,0.0001908,53.2155,158.4944,62.7208,297.3979,0.00023195,3.405e-05,0.0,0 STARLINK-5290,1 54157U 22141A   23009.84157074  .00003405  00000-0  23195-3 0  9997,2 54157  53.2155 158.4944 0001908  62.7208 297.3979 15.08835205 11378,6917.895,95.438,541.08,538.44,0.0
54157.0,STARLINK-5290,PAYLOAD,2023-01-10 10:30:20,15.08839817,0.0001888,53.218,155.8164,57.7527,302.3648,1.6425999999999998e-05,-2.7e-07,0.0,0 STARLINK-5290,1 54157U 22141A   23010.43773469 -.00000027  00000-0  16426-4 0  9994,2 54157  53.2180 155.8164 0001888  57.7527 302.3648 15.08839817 11469,6917.880999999999,95.438,541.052,538.44,0.0
54157.0,STARLINK-5290,PAYLOAD,2023-01-10 18:27:16,15.08838042,0.0001809,53.2182,154.3299,56.1819,303.9345,-3.3176e-06,-3.41e-06,0.0,0 STARLINK-5290,1 54157U 22141A   23010.76893579 -.00000341  00000-0 -33176-5 0  9997,2 54157  53.2182 154.3299 0001809  56.1819 303.9345 15.08838042 11510,6917.886,95.438,541.003,538.5,0.0
54157.0,STARLINK-5290,PAYLOAD,2023-01-11 13:31:54,15.08829463,0.0001639,53.2175,150.7634,68.7718,291.3449,-2.1931e-05,-6.37e-06,0.0,0 STARLINK-5290,1 54157U 22141A   23011.56382614 -.00000637  00000-0 -21931-4 0  9992,2 54157  53.2175 150.7634 0001639  68.7718 291.3449 15.08829463 11638,6917.913000000001,95.438,540.911,538.644,0.0
54157.0,STARLINK-5290,PAYLOAD,2023-01-11 18:18:03,15.08827294,0.0001471,53.2176,149.8697,56.5357,303.5775,-0.0001001,-1.88e-05,0.0,0 STARLINK-5290,1 54157U 22141A   23011.76254259 -.00001880  00000-0 -10010-3 0  9993,2 54157  53.2176 149.8697 0001471  56.5357 303.5775 15.08827294 11666,6917.919,95.438,540.802,538.7669999999998,0.0
